CCSDS_OMM_VERS = 2.0
CREATION_DATE  = 
ORIGINATOR     = 

OBJECT_NAME    = SL-16 R/B
OBJECT_ID      = 1993-016B
CENTER_NAME    = EARTH
REF_FRAME      = TEME
TIME_SYSTEM    = UTC
MEAN_ELEMENT_THEORY = SGP/SGP4

EPOCH          = 2026-02-07T22:53:54.339360
MEAN_MOTION    = 14.15303879
ECCENTRICITY   = .00102581
INCLINATION    = 71.0070
RA_OF_ASC_NODE = 277.6386
ARG_OF_PERICENTER = 354.7598
MEAN_ANOMALY   = 5.3415

EPHEMERIS_TYPE = 0
CLASSIFICATION_TYPE = U
NORAD_CAT_ID   = 22566
ELEMENT_SET_NO = 999
REV_AT_EPOCH   = 69796
BSTAR          = -.40397009E-4
MEAN_MOTION_DOT = -.126E-5
MEAN_MOTION_DDOT = 0

CCSDS_OMM_VERS = 2.0
CREATION_DATE  = 
ORIGINATOR     = 

OBJECT_NAME    = COSMOS 2242
OBJECT_ID      = 1993-024A
CENTER_NAME    = EARTH
REF_FRAME      = TEME
TIME_SYSTEM    = UTC
MEAN_ELEMENT_THEORY = SGP/SGP4

EPOCH          = 2026-02-07T19:32:23.557056
MEAN_MOTION    = 14.96425260
ECCENTRICITY   = .00176484
INCLINATION    = 82.5191
RA_OF_ASC_NODE = 295.2910
ARG_OF_PERICENTER = 49.2060
MEAN_ANOMALY   = 311.0689

EPHEMERIS_TYPE = 0
CLASSIFICATION_TYPE = U
NORAD_CAT_ID   = 22626
ELEMENT_SET_NO = 999
REV_AT_EPOCH   = 77592
BSTAR          = .21465729E-3
MEAN_MOTION_DOT = .2466E-4
MEAN_MOTION_DDOT = 0

CCSDS_OMM_VERS = 2.0
CREATION_DATE  = 
ORIGINATOR     = 

OBJECT_NAME    = SL-16 R/B
OBJECT_ID      = 1993-059B
CENTER_NAME    = EARTH
REF_FRAME      = TEME
TIME_SYSTEM    = UTC
MEAN_ELEMENT_THEORY = SGP/SGP4

EPOCH          = 2026-02-07T13:12:36.408960
MEAN_MOTION    = 14.17227100
ECCENTRICITY   = .0019494
INCLINATION    = 70.9892
RA_OF_ASC_NODE = 74.6871
ARG_OF_PERICENTER = 257.8699
MEAN_ANOMALY   = 102.0241

EPHEMERIS_TYPE = 0
CLASSIFICATION_TYPE = U
NORAD_CAT_ID   = 22803
ELEMENT_SET_NO = 999
REV_AT_EPOCH   = 67526
BSTAR          = .12714E-3
MEAN_MOTION_DOT = .209E-5
MEAN_MOTION_DDOT = 0

CCSDS_OMM_VERS = 2.0
CREATION_DATE  = 
ORIGINATOR     = 

OBJECT_NAME    = ARIANE 40 R/B
OBJECT_ID      = 1993-061H
CENTER_NAME    = EARTH
REF_FRAME      = TEME
TIME_SYSTEM    = UTC
MEAN_ELEMENT_THEORY = SGP/SGP4

EPOCH          = 2026-02-07T19:27:47.656800
MEAN_MOTION    = 14.32845051
ECCENTRICITY   = .00108798
INCLINATION    = 98.4980
RA_OF_ASC_NODE = 108.2787
ARG_OF_PERICENTER = 18.7826
MEAN_ANOMALY   = 341.3757

EPHEMERIS_TYPE = 0
CLASSIFICATION_TYPE = U
NORAD_CAT_ID   = 22830
ELEMENT_SET_NO = 999
REV_AT_EPOCH   = 68982
BSTAR          = .11224018E-3
MEAN_MOTION_DOT = .263E-5
MEAN_MOTION_DDOT = 0

CCSDS_OMM_VERS = 2.0
CREATION_DATE  = 
ORIGINATOR     = 

OBJECT_NAME    = COSMOS 2278
OBJECT_ID      = 1994-023A
CENTER_NAME    = EARTH
REF_FRAME      = TEME
TIME_SYSTEM    = UTC
MEAN_ELEMENT_THEORY = SGP/SGP4

EPOCH          = 2026-02-07T23:08:37.339584
MEAN_MOTION    = 14.14363818
ECCENTRICITY   = .0006585
INCLINATION    = 71.0501
RA_OF_ASC_NODE = 237.2881
ARG_OF_PERICENTER = 69.6924
MEAN_ANOMALY   = 290.4905

EPHEMERIS_TYPE = 0
CLASSIFICATION_TYPE = U
NORAD_CAT_ID   = 23087
ELEMENT_SET_NO = 999
REV_AT_EPOCH   = 64060
BSTAR          = -.59057257E-4
MEAN_MOTION_DOT = -.16E-5
MEAN_MOTION_DDOT = 0

CCSDS_OMM_VERS = 2.0
CREATION_DATE  = 
ORIGINATOR     = 

OBJECT_NAME    = SL-16 R/B
OBJECT_ID      = 1994-023B
CENTER_NAME    = EARTH
REF_FRAME      = TEME
TIME_SYSTEM    = UTC
MEAN_ELEMENT_THEORY = SGP/SGP4

EPOCH          = 2026-02-07T16:05:59.135712
MEAN_MOTION    = 14.15003517
ECCENTRICITY   = .0004462
INCLINATION    = 70.9998
RA_OF_ASC_NODE = 133.9321
ARG_OF_PERICENTER = 313.2838
MEAN_ANOMALY   = 46.7911

EPHEMERIS_TYPE = 0
CLASSIFICATION_TYPE = U
NORAD_CAT_ID   = 23088
ELEMENT_SET_NO = 999
REV_AT_EPOCH   = 64184
BSTAR          = .30809588E-4
MEAN_MOTION_DOT = .12E-6
MEAN_MOTION_DDOT = 0

CCSDS_OMM_VERS = 2.0
CREATION_DATE  = 
ORIGINATOR     = 

OBJECT_NAME    = SL-16 R/B
OBJECT_ID      = 1994-074B
CENTER_NAME    = EARTH
REF_FRAME      = TEME
TIME_SYSTEM    = UTC
MEAN_ELEMENT_THEORY = SGP/SGP4

EPOCH          = 2026-02-07T23:11:10.056768
MEAN_MOTION    = 14.79371930
ECCENTRICITY   = .00057108
INCLINATION    = 97.7148
RA_OF_ASC_NODE = 70.9825
ARG_OF_PERICENTER = 329.6377
MEAN_ANOMALY   = 94.2323

EPHEMERIS_TYPE = 0
CLASSIFICATION_TYPE = U
NORAD_CAT_ID   = 23343
ELEMENT_SET_NO = 999
REV_AT_EPOCH   = 68285
BSTAR          = .86731008E-4
MEAN_MOTION_DOT = .597E-5
MEAN_MOTION_DDOT = 0

CCSDS_OMM_VERS = 2.0
CREATION_DATE  = 
ORIGINATOR     = 

OBJECT_NAME    = SL-16 R/B
OBJECT_ID      = 1994-077B
CENTER_NAME    = EARTH
REF_FRAME      = TEME
TIME_SYSTEM    = UTC
MEAN_ELEMENT_THEORY = SGP/SGP4

EPOCH          = 2026-02-07T10:51:06.973920
MEAN_MOTION    = 14.15556854
ECCENTRICITY   = .00043482
INCLINATION    = 70.9814
RA_OF_ASC_NODE = 56.1032
ARG_OF_PERICENTER = 237.5119
MEAN_ANOMALY   = 122.5584

EPHEMERIS_TYPE = 0
CLASSIFICATION_TYPE = U
NORAD_CAT_ID   = 23405
ELEMENT_SET_NO = 999
REV_AT_EPOCH   = 61195
BSTAR          = .53108099E-4
MEAN_MOTION_DOT = .56E-6
MEAN_MOTION_DDOT = 0

CCSDS_OMM_VERS = 2.0
CREATION_DATE  = 
ORIGINATOR     = 

OBJECT_NAME    = ARIANE 40+ R/B
OBJECT_ID      = 1995-021B
CENTER_NAME    = EARTH
REF_FRAME      = TEME
TIME_SYSTEM    = UTC
MEAN_ELEMENT_THEORY = SGP/SGP4

EPOCH          = 2026-02-07T19:17:37.577760
MEAN_MOTION    = 14.39750253
ECCENTRICITY   = .00060174
INCLINATION    = 98.4559
RA_OF_ASC_NODE = 110.6823
ARG_OF_PERICENTER = 224.1599
MEAN_ANOMALY   = 245.8337

EPHEMERIS_TYPE = 0
CLASSIFICATION_TYPE = U
NORAD_CAT_ID   = 23561
ELEMENT_SET_NO = 999
REV_AT_EPOCH   = 61494
BSTAR          = .13810886E-3
MEAN_MOTION_DOT = .389E-5
MEAN_MOTION_DDOT = 0

CCSDS_OMM_VERS = 2.0
CREATION_DATE  = 
ORIGINATOR     = 

OBJECT_NAME    = SL-16 R/B
OBJECT_ID      = 1995-058B
CENTER_NAME    = EARTH
REF_FRAME      = TEME
TIME_SYSTEM    = UTC
MEAN_ELEMENT_THEORY = SGP/SGP4

EPOCH          = 2026-02-07T22:51:22.675392
MEAN_MOTION    = 14.15492069
ECCENTRICITY   = .00123029
INCLINATION    = 71.0189
RA_OF_ASC_NODE = 242.6877
ARG_OF_PERICENTER = 174.7403
MEAN_ANOMALY   = 185.3851

EPHEMERIS_TYPE = 0
CLASSIFICATION_TYPE = U
NORAD_CAT_ID   = 23705
ELEMENT_SET_NO = 999
REV_AT_EPOCH   = 56364
BSTAR          = .18257988E-3
MEAN_MOTION_DOT = .309E-5
MEAN_MOTION_DDOT = 0

CCSDS_OMM_VERS = 2.0
CREATION_DATE  = 
ORIGINATOR     = 

OBJECT_NAME    = SL-16 R/B
OBJECT_ID      = 1996-051B
CENTER_NAME    = EARTH
REF_FRAME      = TEME
TIME_SYSTEM    = UTC
MEAN_ELEMENT_THEORY = SGP/SGP4

EPOCH          = 2026-02-07T22:12:20.825856
MEAN_MOTION    = 14.12407078
ECCENTRICITY   = .00175892
INCLINATION    = 70.7565
RA_OF_ASC_NODE = 238.2399
ARG_OF_PERICENTER = 189.6695
MEAN_ANOMALY   = 170.4089

EPHEMERIS_TYPE = 0
CLASSIFICATION_TYPE = U
NORAD_CAT_ID   = 24298
ELEMENT_SET_NO = 999
REV_AT_EPOCH   = 51744
BSTAR          = .69614686E-4
MEAN_MOTION_DOT = .79E-6
MEAN_MOTION_DDOT = 0

CCSDS_OMM_VERS = 2.0
CREATION_DATE  = 
ORIGINATOR     = 

OBJECT_NAME    = ORBVIEW 2 (SEASTAR)
OBJECT_ID      = 1997-037A
CENTER_NAME    = EARTH
REF_FRAME      = TEME
TIME_SYSTEM    = UTC
MEAN_ELEMENT_THEORY = SGP/SGP4

EPOCH          = 2026-02-07T22:24:28.761408
MEAN_MOTION    = 14.35471451
ECCENTRICITY   = .00028995
INCLINATION    = 98.8514
RA_OF_ASC_NODE = 202.4659
ARG_OF_PERICENTER = 132.5327
MEAN_ANOMALY   = 227.6103

EPHEMERIS_TYPE = 0
CLASSIFICATION_TYPE = U
NORAD_CAT_ID   = 24883
ELEMENT_SET_NO = 999
REV_AT_EPOCH   = 50420
BSTAR          = .15324701E-3
MEAN_MOTION_DOT = .394E-5
MEAN_MOTION_DDOT = 0

