SL-16 R/B               
1 22566U 93016B   26038.95410115 -.00000126  00000+0 -40397-4 0  9992
2 22566  71.0070 277.6386 0010258 354.7598   5.3415 14.15303879697960
COSMOS 2242             
1 22626U 93024A   26038.81416154  .00002466  00000+0  21466-3 0  9994
2 22626  82.5191 295.2910 0017648  49.2060 311.0689 14.96425260775928
SL-16 R/B               
1 22803U 93059B   26038.55042140  .00000209  00000+0  12714-3 0  9999
2 22803  70.9892  74.6871 0019494 257.8699 102.0241 14.17227100675269
ARIANE 40 R/B           
1 22830U 93061H   26038.81096825  .00000263  00000+0  11224-3 0  9995
2 22830  98.4980 108.2787 0010879  18.7826 341.3757 14.32845051689821
COSMOS 2278             
1 23087U 94023A   26038.96432106 -.00000160  00000+0 -59057-4 0  9996
2 23087  71.0501 237.2881 0006585  69.6924 290.4905 14.14363818640601
SL-16 R/B               
1 23088U 94023B   26038.67082333  .00000012  00000+0  30810-4 0  9998
2 23088  70.9998 133.9321 0004462 313.2838  46.7911 14.15003517641849
SL-16 R/B               
1 23343U 94074B   26038.96608862  .00000597  00000+0  86731-4 0  9992
2 23343  97.7148  70.9825 0005710 329.6377  94.2323 14.79371930682850
SL-16 R/B               
1 23405U 94077B   26038.45216405  .00000056  00000+0  53108-4 0  9998
2 23405  70.9814  56.1032 0004348 237.5119 122.5584 14.15556854611952
ARIANE 40+ R/B          
1 23561U 95021B   26038.80390715  .00000389  00000+0  13811-3 0  9992
2 23561  98.4559 110.6823 0006017 224.1599 245.8337 14.39750253614941
SL-16 R/B               
1 23705U 95058B   26038.95234578  .00000309  00000+0  18258-3 0  9994
2 23705  71.0189 242.6877 0012302 174.7403 185.3851 14.15492069563641
SL-16 R/B               
1 24298U 96051B   26038.92524104  .00000079  00000+0  69615-4 0  9998
2 24298  70.7565 238.2399 0017589 189.6695 170.4089 14.12407078517441
ORBVIEW 2 (SEASTAR)     
1 24883U 97037A   26038.93366622  .00000394  00000+0  15325-3 0  9991
2 24883  98.8514 202.4659 0002899 132.5327 227.6103 14.35471451504208
